     2.10           G: GLONASS NAV DATA                     RINEX VERSION / TYPE
teqc  2015Jun23                         20220217 01:25:43UTCPGM / RUN BY / DATE
Linux 2.4.21-27.ELsmp|Opteron|gcc -static|Linux x86_64|=+   COMMENT
  2022     1    24   -2.328306436539D-09                    CORR TO SYSTEM TIME
                                                            END OF HEADER
21 22  1 25 20 15  0.0-2.728896215558D-04-2.728484105319D-12 7.200000000000D+04
   -1.420339111328D+04 5.813350677490D-01-3.725290298462D-09 0.000000000000D+00
    2.038119628906D+04-5.788393020630D-01 9.313225746155D-10 4.000000000000D+00
   -5.734769531250D+03-3.495311737061D+00-0.000000000000D+00 0.000000000000D+00
 8 22  1 25 20 45  0.0-6.324797868729D-05 0.000000000000D+00 7.380000000000D+04
    4.337834960938D+03-1.392957687378D+00 0.000000000000D+00 0.000000000000D+00
    1.833157958984D+04-1.898174285889D+00 0.000000000000D+00 6.000000000000D+00
    1.726798925781D+04 2.369659423828D+00-1.862645149231D-09 0.000000000000D+00
22 22  1 25 20 45  0.0-1.604314893484D-04-9.094947017729D-13 7.380000000000D+04
   -7.492659179688D+03 6.079673767090D-03-1.862645149231D-09 0.000000000000D+00
    2.402484472656D+04 6.621284484863D-01 9.313225746155D-10-3.000000000000D+00
    4.466776855469D+03-3.535976409912D+00-9.313225746155D-10 0.000000000000D+00
10 22  1 25 20 45  0.0-7.920712232590D-05-0.000000000000D+00 7.380000000000D+04
   -2.216912939453D+04-1.229272842407D+00-2.793967723846D-09 0.000000000000D+00
    8.436683593750D+03 3.538198471069D-01 1.862645149231D-09-7.000000000000D+00
   -9.289414062500D+03 3.266770362854D+00-9.313225746155D-10 0.000000000000D+00
 1 22  1 25 20 45  0.0 7.096678018570D-06-0.000000000000D+00 7.380000000000D+04
    1.521999023438D+04-1.706581115723D-01-0.000000000000D+00 0.000000000000D+00
    2.021672998047D+04-4.258384704590D-01-0.000000000000D+00 1.000000000000D+00
    3.175131835938D+03 3.529764175415D+00 0.000000000000D+00 0.000000000000D+00
21 22  1 25 20 45  0.0-2.728952094913D-04-2.728484105319D-12 7.380000000000D+04
   -1.294116357422D+04 7.769222259521D-01-3.725290298462D-09 0.000000000000D+00
    1.857709082031D+04-1.424136161804D+00 1.862645149231D-09 4.000000000000D+00
   -1.172284765625D+04-3.114837646484D+00 0.000000000000D+00 0.000000000000D+00
23 22  1 25 20 45  0.0-2.802722156048D-05-9.094947017729D-13 7.407000000000D+04
    4.526370605469D+03-9.659767150879D-01 9.313225746155D-10 0.000000000000D+00
    1.384409570312D+04 2.707272529602D+00-0.000000000000D+00 3.000000000000D+00
    2.094034521484D+04-1.580315589905D+00-1.862645149231D-09 0.000000000000D+00
 8 22  1 25 21 15  0.0-6.324704736471D-05 0.000000000000D+00 7.560000000000D+04
    1.265761230469D+03-2.007935523987D+00 0.000000000000D+00 0.000000000000D+00
    1.477776123047D+04-2.003628730774D+00 0.000000000000D+00 6.000000000000D+00
    2.081482763672D+04 1.545906066895D+00-1.862645149231D-09 0.000000000000D+00
22 22  1 25 21 15  0.0-1.604342833161D-04-9.094947017729D-13 7.560000000000D+04
   -7.167773925781D+03 3.152790069580D-01-2.793967723846D-09 0.000000000000D+00
    2.445595605469D+04-1.990385055542D-01 1.862645149231D-09-3.000000000000D+00
   -1.987899902344D+03-3.589593887329D+00-0.000000000000D+00 0.000000000000D+00
10 22  1 25 21 15  0.0-7.920898497105D-05-0.000000000000D+00 7.560000000000D+04
   -2.360631982422D+04-3.631420135498D-01-1.862645149231D-09 0.000000000000D+00
    9.032997070312D+03 2.673110961914D-01 2.793967723846D-09-7.000000000000D+00
   -3.124851562500D+03 3.538100242615D+00-9.313225746155D-10 0.000000000000D+00
 1 22  1 25 21 15  0.0 7.096678018570D-06-0.000000000000D+00 7.560000000000D+04
    1.431081445312D+04-8.576555252075D-01 0.000000000000D+00 0.000000000000D+00
    1.894004003906D+04-9.553575515747D-01-0.000000000000D+00 1.000000000000D+00
    9.323739257812D+03 3.257636070251D+00-0.000000000000D+00 0.000000000000D+00
21 22  1 25 21 15  0.0-2.729007974267D-04-2.728484105319D-12 7.560000000000D+04
   -1.156418750000D+04 7.112245559692D-01-2.793967723846D-09 0.000000000000D+00
    1.529614355469D+04-2.199973106384D+00 1.862645149231D-09 4.000000000000D+00
   -1.680312109375D+04-2.493223190308D+00 9.313225746155D-10 0.000000000000D+00
23 22  1 25 21 15  0.0-2.803001552820D-05-9.094947017729D-13 7.560000000000D+04
    3.282450195312D+03-4.251203536987D-01-0.000000000000D+00 0.000000000000D+00
    1.843463134766D+04 2.343786239624D+00 0.000000000000D+00 3.000000000000D+00
    1.732308544922D+04-2.412764549255D+00-1.862645149231D-09 0.000000000000D+00
 8 22  1 25 21 45  0.0-6.324611604214D-05 0.000000000000D+00 7.740000000000D+04
   -2.813519042969D+03-2.494794845581D+00 0.000000000000D+00 0.000000000000D+00
    1.127909814453D+04-1.842889785767D+00 0.000000000000D+00 6.000000000000D+00
    2.276193994141D+04 6.035995483398D-01-2.793967723846D-09 0.000000000000D+00
22 22  1 25 21 45  0.0-1.604380086064D-04-9.094947017729D-13 7.740000000000D+04
   -6.509286132812D+03 3.733129501343D-01-2.793967723846D-09 0.000000000000D+00
    2.328630615234D+04-1.096618652344D+00 2.793967723846D-09-3.000000000000D+00
   -8.289818359375D+03-3.367342948914D+00-0.000000000000D+00 0.000000000000D+00
10 22  1 25 21 45  0.0-7.920991629362D-05-0.000000000000D+00 7.740000000000D+04
   -2.349573046875D+04 4.710836410522D-01-9.313225746155D-10 0.000000000000D+00
    9.253479980469D+03-6.021976470947D-02 1.862645149231D-09-7.000000000000D+00
    3.282436523438D+03 3.534641265869D+00-1.862645149231D-09 0.000000000000D+00
 1 22  1 25 21 45  0.0 7.095746695995D-06-0.000000000000D+00 7.740000000000D+04
    1.209907617188D+04-1.599787712097D+00 0.000000000000D+00 0.000000000000D+00
    1.692635546875D+04-1.238148689270D+00-0.000000000000D+00 1.000000000000D+00
    1.475104199219D+04 2.733536720276D+00-9.313225746155D-10 0.000000000000D+00
21 22  1 25 21 45  0.0-2.729063853621D-04-2.728484105319D-12 7.740000000000D+04
   -1.051614794922D+04 4.212179183960D-01-1.862645149231D-09 0.000000000000D+00
    1.076615576172D+04-2.795084953308D+00 1.862645149231D-09 4.000000000000D+00
   -2.058244140625D+04-1.678763389587D+00 9.313225746155D-10 0.000000000000D+00
23 22  1 25 21 45  0.0-2.803653478622D-05-9.094947017729D-13 7.740000000000D+04
    2.931921386719D+03 9.770393371582D-03-9.313225746155D-10 0.000000000000D+00
    2.211834179688D+04 1.709434509277D+00 9.313225746155D-10 3.000000000000D+00
    1.236660449219D+04-3.058679580688D+00-1.862645149231D-09 0.000000000000D+00
12 22  1 25 21 45  0.0 2.980204299092D-04 2.728484105319D-12 7.824000000000D+04
    2.561573730469D+03-2.854153633118D+00-1.862645149231D-09 0.000000000000D+00
    1.086911083984D+04 1.315004348755D+00 9.313225746155D-10-1.000000000000D+00
   -2.291266992188D+04 3.067884445190D-01 1.862645149231D-09 0.000000000000D+00
22 22  1 25 22 15  0.0-1.604408025742D-04-9.094947017729D-13 7.920000000000D+04
   -5.973790527344D+03 1.829719543457D-01-1.862645149231D-09 0.000000000000D+00
    2.055822412109D+04-1.911096572876D+00 2.793967723846D-09-3.000000000000D+00
   -1.395456689453D+04-2.886141777039D+00 0.000000000000D+00 0.000000000000D+00
12 22  1 25 22 15  0.0 2.980260178447D-04 2.728484105319D-12 7.920000000000D+04
   -2.265565917969D+03-2.469230651855D+00-1.862645149231D-09 0.000000000000D+00
    1.352924804688D+04 1.608783721924D+00 1.862645149231D-09-1.000000000000D+00
   -2.147992089844D+04 1.274850845337D+00 1.862645149231D-09 0.000000000000D+00
 1 22  1 25 22 15  0.0 7.095746695995D-06-0.000000000000D+00 7.920000000000D+04
    8.586039062500D+03-2.284657478333D+00 0.000000000000D+00 0.000000000000D+00
    1.464179736328D+04-1.257318496704D+00-0.000000000000D+00 1.000000000000D+00
    1.903734619141D+04 1.998112678528D+00-1.862645149231D-09 0.000000000000D+00
10 22  1 25 22 15  0.0-7.921177893877D-05-0.000000000000D+00 7.920000000000D+04
   -2.199565332031D+04 1.164101600647D+00 0.000000000000D+00 0.000000000000D+00
    8.696622558594D+03-5.857734680176D-01 1.862645149231D-09-7.000000000000D+00
    9.434583496094D+03 3.256457328796D+00-2.793967723846D-09 0.000000000000D+00
23 22  1 25 22 15  0.0-2.803839743137D-05-9.094947017729D-13 7.920000000000D+04
    3.200754882812D+03 2.511138916016D-01-9.313225746155D-10 0.000000000000D+00
    2.447225732422D+04 8.822059631348D-01 1.862645149231D-09 3.000000000000D+00
    6.454084472656D+03-3.468133926392D+00-9.313225746155D-10 0.000000000000D+00
24 22  1 25 22 15  0.0 7.727090269327D-05 1.818989403546D-12 7.926000000000D+04
    8.931039550781D+03 1.409282684326D-01 0.000000000000D+00 0.000000000000D+00
    1.493299462891D+04 2.550943374634D+00 0.000000000000D+00 2.000000000000D+00
    1.867033691406D+04-2.111068725586D+00-1.862645149231D-09 0.000000000000D+00
22 22  1 25 22 45  0.0-1.604445278645D-04-1.818989403546D-12 8.100000000000D+04
   -5.971715332031D+03-2.079954147339D-01-1.862645149231D-09 0.000000000000D+00
    1.652162353516D+04-2.534440040588D+00 2.793967723846D-09-3.000000000000D+00
   -1.854613623047D+04-2.182525634766D+00 9.313225746155D-10 0.000000000000D+00
23 22  1 25 22 45  0.0-2.804119139910D-05-9.094947017729D-13 8.100000000000D+04
    3.688110351562D+03 2.476205825806D-01-1.862645149231D-09 0.000000000000D+00
    2.524311425781D+04-2.987098693848D-02 2.793967723846D-09 3.000000000000D+00
    4.261328125000D+01-3.609471321106D+00-9.313225746155D-10 0.000000000000D+00
10 22  1 25 22 45  0.0-7.921364158392D-05-0.000000000000D+00 8.100000000000D+04
   -1.944108593750D+04 1.631561279297D+00 0.000000000000D+00 0.000000000000D+00
    7.073780761719D+03-1.228693008423D+00 9.313225746155D-10-7.000000000000D+00
    1.485350634766D+04 2.725317955017D+00-2.793967723846D-09 0.000000000000D+00
24 22  1 25 22 45  0.0 7.727462798357D-05 1.818989403546D-12 8.100000000000D+04
    9.466251464844D+03 4.221343994141D-01-0.000000000000D+00 0.000000000000D+00
    1.897046777344D+04 1.900055885315D+00 0.000000000000D+00 2.000000000000D+00
    1.419868359375D+04-2.825295448303D+00-1.862645149231D-09 0.000000000000D+00
